<?xml version="1.0" encoding="UTF-8"?>
<kml xmlns="http://www.opengis.net/kml/2.2" xmlns:gx="http://www.google.com/kml/ext/2.2" xmlns:kml="http://www.opengis.net/kml/2.2" xmlns:atom="http://www.w3.org/2005/Atom">
<Document>
	<name>MANUSCRIPT FIG.kmz</name>
	<StyleMap id="msn_placemark_circle5">
		<Pair>
			<key>normal</key>
			<styleUrl>#sn_placemark_circle0</styleUrl>
		</Pair>
		<Pair>
			<key>highlight</key>
			<styleUrl>#sh_placemark_circle_highlight02</styleUrl>
		</Pair>
	</StyleMap>
	<StyleMap id="msn_placemark_circle51">
		<Pair>
			<key>normal</key>
			<styleUrl>#sn_placemark_circle12</styleUrl>
		</Pair>
		<Pair>
			<key>highlight</key>
			<styleUrl>#sh_placemark_circle_highlight51</styleUrl>
		</Pair>
	</StyleMap>
	<Style id="sh_placemark_circle_highlight02">
		<IconStyle>
			<color>ff00ffff</color>
			<scale>2</scale>
			<Icon>
				<href>http://maps.google.com/mapfiles/kml/shapes/placemark_circle_highlight.png</href>
			</Icon>
		</IconStyle>
		<LabelStyle>
			<scale>1.5</scale>
		</LabelStyle>
	</Style>
	<Style id="sh_placemark_circle_highlight51">
		<IconStyle>
			<scale>1.8</scale>
			<Icon>
				<href>http://maps.google.com/mapfiles/kml/shapes/placemark_circle_highlight.png</href>
			</Icon>
		</IconStyle>
		<LabelStyle>
			<scale>1.5</scale>
		</LabelStyle>
	</Style>
	<Style id="sn_placemark_circle0">
		<IconStyle>
			<color>ff00ffff</color>
			<scale>2</scale>
			<Icon>
				<href>http://maps.google.com/mapfiles/kml/shapes/placemark_circle.png</href>
			</Icon>
		</IconStyle>
		<LabelStyle>
			<scale>1.5</scale>
		</LabelStyle>
	</Style>
	<Style id="sn_placemark_circle12">
		<IconStyle>
			<scale>1.8</scale>
			<Icon>
				<href>http://maps.google.com/mapfiles/kml/shapes/placemark_circle.png</href>
			</Icon>
		</IconStyle>
		<LabelStyle>
			<scale>1.5</scale>
		</LabelStyle>
	</Style>
	<Folder>
		<name>MANUSCRIPT FIG</name>
		<open>1</open>
		<Placemark>
			<description>WTG01</description>
			<LookAt>
				<longitude>108.8985857007545</longitude>
				<latitude>11.42752073765252</latitude>
				<altitude>0</altitude>
				<heading>0.001428040262533169</heading>
				<tilt>0</tilt>
				<range>1136.953113051873</range>
				<gx:altitudeMode>relativeToSeaFloor</gx:altitudeMode>
			</LookAt>
			<styleUrl>#msn_placemark_circle51</styleUrl>
			<Point>
				<gx:drawOrder>1</gx:drawOrder>
				<coordinates>108.8970595662073,11.42809063206349,0</coordinates>
			</Point>
		</Placemark>
		<Placemark>
			<description>WTG02</description>
			<LookAt>
				<longitude>108.8990754837848</longitude>
				<latitude>11.42439431380757</latitude>
				<altitude>0</altitude>
				<heading>0.001525040289677117</heading>
				<tilt>0</tilt>
				<range>1144.470248057296</range>
				<gx:altitudeMode>relativeToSeaFloor</gx:altitudeMode>
			</LookAt>
			<styleUrl>#msn_placemark_circle51</styleUrl>
			<Point>
				<gx:drawOrder>1</gx:drawOrder>
				<coordinates>108.8986341411751,11.42339117490024,0</coordinates>
			</Point>
		</Placemark>
		<Placemark>
			<description>WTG03</description>
			<LookAt>
				<longitude>108.8999908308319</longitude>
				<latitude>11.41942813076479</latitude>
				<altitude>0</altitude>
				<heading>0.001706104433786135</heading>
				<tilt>0</tilt>
				<range>1089.911393517672</range>
				<gx:altitudeMode>relativeToSeaFloor</gx:altitudeMode>
			</LookAt>
			<styleUrl>#msn_placemark_circle51</styleUrl>
			<Point>
				<gx:drawOrder>1</gx:drawOrder>
				<coordinates>108.9000555233004,11.41845364660083,0</coordinates>
			</Point>
		</Placemark>
		<Placemark>
			<description>WTG04</description>
			<LookAt>
				<longitude>108.8986711897026</longitude>
				<latitude>11.41392871735976</latitude>
				<altitude>0</altitude>
				<heading>0.001444677930367787</heading>
				<tilt>0</tilt>
				<range>1111.234702419851</range>
				<gx:altitudeMode>relativeToSeaFloor</gx:altitudeMode>
			</LookAt>
			<styleUrl>#msn_placemark_circle51</styleUrl>
			<Point>
				<gx:drawOrder>1</gx:drawOrder>
				<coordinates>108.8969232644379,11.4117467810686,0</coordinates>
			</Point>
		</Placemark>
		<Placemark>
			<description>WTG05</description>
			<LookAt>
				<longitude>108.8994721952331</longitude>
				<latitude>11.40697856101269</latitude>
				<altitude>0</altitude>
				<heading>0.001603011605628774</heading>
				<tilt>0</tilt>
				<range>1083.43202859587</range>
				<gx:altitudeMode>relativeToSeaFloor</gx:altitudeMode>
			</LookAt>
			<styleUrl>#msn_placemark_circle51</styleUrl>
			<Point>
				<gx:drawOrder>1</gx:drawOrder>
				<coordinates>108.9015329015112,11.40584364800799,0</coordinates>
			</Point>
		</Placemark>
		<Placemark>
			<description>WTG06</description>
			<LookAt>
				<longitude>108.8994721952331</longitude>
				<latitude>11.40697856101269</latitude>
				<altitude>0</altitude>
				<heading>0.001603011605628774</heading>
				<tilt>0</tilt>
				<range>1083.43202859587</range>
				<gx:altitudeMode>relativeToSeaFloor</gx:altitudeMode>
			</LookAt>
			<styleUrl>#msn_placemark_circle51</styleUrl>
			<Point>
				<gx:drawOrder>1</gx:drawOrder>
				<coordinates>108.8968373139788,11.40599419827719,0</coordinates>
			</Point>
		</Placemark>
		<Placemark>
			<name>WTG07</name>
			<description>C</description>
			<LookAt>
				<longitude>108.9028220261199</longitude>
				<latitude>11.40100790660478</latitude>
				<altitude>0</altitude>
				<heading>0.2985849562644501</heading>
				<tilt>0</tilt>
				<range>338.6677788183948</range>
				<gx:altitudeMode>relativeToSeaFloor</gx:altitudeMode>
			</LookAt>
			<styleUrl>#msn_placemark_circle5</styleUrl>
			<Point>
				<gx:drawOrder>1</gx:drawOrder>
				<coordinates>108.9031110509758,11.40109782554576,0</coordinates>
			</Point>
		</Placemark>
		<Placemark>
			<description>WTG08</description>
			<LookAt>
				<longitude>108.8995033667533</longitude>
				<latitude>11.40259672161459</latitude>
				<altitude>0</altitude>
				<heading>0.001609181668078162</heading>
				<tilt>0</tilt>
				<range>1098.006585087292</range>
				<gx:altitudeMode>relativeToSeaFloor</gx:altitudeMode>
			</LookAt>
			<styleUrl>#msn_placemark_circle51</styleUrl>
			<Point>
				<gx:drawOrder>1</gx:drawOrder>
				<coordinates>108.8967366040452,11.39990793046621,0</coordinates>
			</Point>
		</Placemark>
		<Placemark>
			<description>WTG09</description>
			<LookAt>
				<longitude>108.899468995706</longitude>
				<latitude>11.3972178766598</latitude>
				<altitude>0</altitude>
				<heading>0.001602380689387636</heading>
				<tilt>0</tilt>
				<range>1597.86431379466</range>
				<gx:altitudeMode>relativeToSeaFloor</gx:altitudeMode>
			</LookAt>
			<styleUrl>#msn_placemark_circle51</styleUrl>
			<Point>
				<gx:drawOrder>1</gx:drawOrder>
				<coordinates>108.8960474268648,11.39381509658487,0</coordinates>
			</Point>
		</Placemark>
		<Placemark>
			<name>WTG10</name>
			<description>D</description>
			<LookAt>
				<longitude>108.8907197533891</longitude>
				<latitude>11.38221098978589</latitude>
				<altitude>0</altitude>
				<heading>0.2961932695401616</heading>
				<tilt>0</tilt>
				<range>362.1881255021498</range>
				<gx:altitudeMode>relativeToSeaFloor</gx:altitudeMode>
			</LookAt>
			<styleUrl>#msn_placemark_circle5</styleUrl>
			<Point>
				<gx:drawOrder>1</gx:drawOrder>
				<coordinates>108.8907521437461,11.38109912089011,0</coordinates>
			</Point>
		</Placemark>
		<Placemark>
			<description>WTG11</description>
			<LookAt>
				<longitude>108.8914272863208</longitude>
				<latitude>11.37106661853671</latitude>
				<altitude>0</altitude>
				<heading>-0.0003697863714460715</heading>
				<tilt>0</tilt>
				<range>2288.739409247558</range>
				<gx:altitudeMode>relativeToSeaFloor</gx:altitudeMode>
			</LookAt>
			<styleUrl>#msn_placemark_circle51</styleUrl>
			<Point>
				<gx:drawOrder>1</gx:drawOrder>
				<coordinates>108.8863987021741,11.37651150220954,0</coordinates>
			</Point>
		</Placemark>
		<Placemark>
			<description>WTG12</description>
			<LookAt>
				<longitude>108.8914272863208</longitude>
				<latitude>11.37106661853671</latitude>
				<altitude>0</altitude>
				<heading>-0.0003697863714460715</heading>
				<tilt>0</tilt>
				<range>2288.739409247558</range>
				<gx:altitudeMode>relativeToSeaFloor</gx:altitudeMode>
			</LookAt>
			<styleUrl>#msn_placemark_circle51</styleUrl>
			<Point>
				<gx:drawOrder>1</gx:drawOrder>
				<coordinates>108.8834190703402,11.36809578421637,0</coordinates>
			</Point>
		</Placemark>
		<Placemark>
			<description>WTG13</description>
			<LookAt>
				<longitude>108.8885620569146</longitude>
				<latitude>11.42902024984096</latitude>
				<altitude>0</altitude>
				<heading>-1.342553030434523e-05</heading>
				<tilt>0</tilt>
				<range>681.3508309502718</range>
				<gx:altitudeMode>relativeToSeaFloor</gx:altitudeMode>
			</LookAt>
			<styleUrl>#msn_placemark_circle51</styleUrl>
			<Point>
				<gx:drawOrder>1</gx:drawOrder>
				<coordinates>108.8887707057238,11.42987316652098,0</coordinates>
			</Point>
		</Placemark>
		<Placemark>
			<name>WTG14</name>
			<description>A</description>
			<LookAt>
				<longitude>108.8884922238756</longitude>
				<latitude>11.42321121322647</latitude>
				<altitude>0</altitude>
				<heading>0.2957473797223206</heading>
				<tilt>0</tilt>
				<range>746.4498122603848</range>
				<gx:altitudeMode>relativeToSeaFloor</gx:altitudeMode>
			</LookAt>
			<styleUrl>#msn_placemark_circle5</styleUrl>
			<Point>
				<gx:drawOrder>1</gx:drawOrder>
				<coordinates>108.8886954460687,11.42372159113421,0</coordinates>
			</Point>
		</Placemark>
		<Placemark>
			<description>WTG15</description>
			<LookAt>
				<longitude>108.8886977148142</longitude>
				<latitude>11.412061657781</latitude>
				<altitude>0</altitude>
				<heading>-0.0005262801957231382</heading>
				<tilt>0</tilt>
				<range>2418.004548427284</range>
				<gx:altitudeMode>relativeToSeaFloor</gx:altitudeMode>
			</LookAt>
			<styleUrl>#msn_placemark_circle51</styleUrl>
			<Point>
				<gx:drawOrder>1</gx:drawOrder>
				<coordinates>108.8832379238065,11.41280282050777,0</coordinates>
			</Point>
		</Placemark>
		<Placemark>
			<description>WTG16</description>
			<LookAt>
				<longitude>108.8886977148142</longitude>
				<latitude>11.412061657781</latitude>
				<altitude>0</altitude>
				<heading>-0.0005262801957231382</heading>
				<tilt>0</tilt>
				<range>2418.004548427284</range>
				<gx:altitudeMode>relativeToSeaFloor</gx:altitudeMode>
			</LookAt>
			<styleUrl>#msn_placemark_circle51</styleUrl>
			<Point>
				<gx:drawOrder>1</gx:drawOrder>
				<coordinates>108.8786633039474,11.40767231172651,0</coordinates>
			</Point>
		</Placemark>
		<Placemark>
			<description>WTG17</description>
			<LookAt>
				<longitude>108.8831014740134</longitude>
				<latitude>11.40028266999971</latitude>
				<altitude>0</altitude>
				<heading>-0.001630565585708266</heading>
				<tilt>0</tilt>
				<range>2228.173452595909</range>
				<gx:altitudeMode>relativeToSeaFloor</gx:altitudeMode>
			</LookAt>
			<styleUrl>#msn_placemark_circle51</styleUrl>
			<Point>
				<gx:drawOrder>1</gx:drawOrder>
				<coordinates>108.8902353134542,11.40357552742048,0</coordinates>
			</Point>
		</Placemark>
		<Placemark>
			<description>WTG18</description>
			<LookAt>
				<longitude>108.8840527075277</longitude>
				<latitude>11.39595607199182</latitude>
				<altitude>0</altitude>
				<heading>-0.001442949208862322</heading>
				<tilt>0</tilt>
				<range>2253.878494041189</range>
				<gx:altitudeMode>relativeToSeaFloor</gx:altitudeMode>
			</LookAt>
			<styleUrl>#msn_placemark_circle51</styleUrl>
			<Point>
				<gx:drawOrder>1</gx:drawOrder>
				<coordinates>108.8893363210403,11.39762420171755,0</coordinates>
			</Point>
		</Placemark>
		<Placemark>
			<description>WTG19</description>
			<LookAt>
				<longitude>108.8986925844691</longitude>
				<latitude>11.38968417575536</latitude>
				<altitude>0</altitude>
				<heading>0.001448459787710461</heading>
				<tilt>0</tilt>
				<range>1530.505950875415</range>
				<gx:altitudeMode>relativeToSeaFloor</gx:altitudeMode>
			</LookAt>
			<styleUrl>#msn_placemark_circle51</styleUrl>
			<Point>
				<gx:drawOrder>1</gx:drawOrder>
				<coordinates>108.8938474276987,11.38735348055192,0</coordinates>
			</Point>
		</Placemark>
		<Placemark>
			<name>WTG20</name>
			<description>B</description>
			<LookAt>
				<longitude>108.8847648092866</longitude>
				<latitude>11.40687150337766</latitude>
				<altitude>0</altitude>
				<heading>0.2950172789815068</heading>
				<tilt>0</tilt>
				<range>198.3632426825264</range>
				<gx:altitudeMode>relativeToSeaFloor</gx:altitudeMode>
			</LookAt>
			<styleUrl>#msn_placemark_circle5</styleUrl>
			<Point>
				<gx:drawOrder>1</gx:drawOrder>
				<coordinates>108.8845400655418,11.4070926642808,0</coordinates>
			</Point>
		</Placemark>
		<Placemark>
			<description>WTG21</description>
			<LookAt>
				<longitude>108.8831014740134</longitude>
				<latitude>11.40028266999971</latitude>
				<altitude>0</altitude>
				<heading>-0.001630565585708266</heading>
				<tilt>0</tilt>
				<range>2228.173452595909</range>
				<gx:altitudeMode>relativeToSeaFloor</gx:altitudeMode>
			</LookAt>
			<styleUrl>#msn_placemark_circle51</styleUrl>
			<Point>
				<gx:drawOrder>1</gx:drawOrder>
				<coordinates>108.8815747863499,11.40093511096282,0</coordinates>
			</Point>
		</Placemark>
		<Placemark>
			<description>WTG22</description>
			<LookAt>
				<longitude>108.8831014740134</longitude>
				<latitude>11.40028266999971</latitude>
				<altitude>0</altitude>
				<heading>-0.001630565585708266</heading>
				<tilt>0</tilt>
				<range>2228.173452595909</range>
				<gx:altitudeMode>relativeToSeaFloor</gx:altitudeMode>
			</LookAt>
			<styleUrl>#msn_placemark_circle51</styleUrl>
			<Point>
				<gx:drawOrder>1</gx:drawOrder>
				<coordinates>108.8741653922818,11.40201678432639,0</coordinates>
			</Point>
		</Placemark>
		<atom:link rel="app" href="https://www.google.com/earth/about/versions/#earth-pro" title="Google Earth Pro 7.3.6.10441"></atom:link>
	</Folder>
</Document>
</kml>
